NORAD_CAT_ID,OBJECT_NAME,OBJECT_TYPE,EPOCH,MEAN_MOTION,ECCENTRICITY,INCLINATION,RA_OF_ASC_NODE,ARG_OF_PERICENTER,MEAN_ANOMALY,BSTAR,MEAN_MOTION_DOT,MEAN_MOTION_DDOT,TLE_LINE0,TLE_LINE1,TLE_LINE2,SEMIMAJOR_AXIS,PERIOD,APOGEE,PERIGEE,DECAYED
51962.0,STARLINK-3697,PAYLOAD,2023-10-11 12:12:16,15.08023244,0.0001586,53.0552,18.7455,76.6688,283.4479,0.0014136,0.00021786,0.0,0 STARLINK-3697,1 51962U 22025G   23284.50852682  .00021786  00000-0  14136-2 0  9990,2 51962  53.0552  18.7455 0001586  76.6688 283.4479 15.08023244 89414,6920.378,95.489,543.341,541.145,0.0
51962.0,STARLINK-3697,PAYLOAD,2023-10-11 13:47:42,15.08030398,0.0001563,53.0553,18.4471,105.691,254.4252,0.0015966,0.00024658,0.0,0 STARLINK-3697,1 51962U 22025G   23284.57480092  .00024658  00000-0  15966-2 0  9992,2 51962  53.0553  18.4471 0001563 105.6910 254.4252 15.08030398 88319,6920.356,95.489,543.303,541.139,0.0
51962.0,STARLINK-3697,PAYLOAD,2023-10-11 23:20:20,15.08020852,0.0002021,53.0544,16.6585,84.0828,276.0392,0.0011776,0.0001809,0.0,0 STARLINK-3697,1 51962U 22025G   23284.97245869  .00018090  00000-0  11776-2 0  9995,2 51962  53.0544  16.6585 0002021  84.0828 276.0392 15.08020852 89481,6920.385,95.489,543.649,540.852,0.0
51962.0,STARLINK-3697,PAYLOAD,2023-10-12 13:39:15,15.08043222,0.000196,53.0557,13.9754,85.4077,274.7137,0.0012114,0.00018631,0.0,0 STARLINK-3697,1 51962U 22025G   23285.56893204  .00018631  00000-0  12114-2 0  9991,2 51962  53.0557  13.9754 0001960  85.4077 274.7137 15.08043222 88460,6920.317,95.488,543.538,540.826,0.0
51962.0,STARLINK-3697,PAYLOAD,2023-10-13 00:47:18,15.08038321,0.0002074,53.0544,11.8876,94.2959,265.8268,0.00056191,8.475e-05,0.0,0 STARLINK-3697,1 51962U 22025G   23286.03285673  .00008475  00000-0  56191-3 0  9998,2 51962  53.0544  11.8876 0002074  94.2959 265.8268 15.08038321 89643,6920.332,95.488,543.632,540.762,0.0
51962.0,STARLINK-3697,PAYLOAD,2023-10-13 11:55:21,15.08038589,0.0001904,53.054,9.7991,94.4075,265.7133,0.0004516,6.753e-05,0.0,0 STARLINK-3697,1 51962U 22025G   23286.49678145  .00006753  00000-0  45160-3 0  9999,2 51962  53.0540   9.7991 0001904  94.4075 265.7133 15.08038589 88606,6920.331,95.488,543.514,540.878,0.0
51962.0,STARLINK-3697,PAYLOAD,2023-10-14 11:46:53,15.08057186,0.0001728,53.0551,5.3251,95.1765,264.9422,0.00088147,0.00013474,0.0,0 STARLINK-3697,1 51962U 22025G   23287.49089752  .00013474  00000-0  88147-3 0  9990,2 51962  53.0551   5.3251 0001728  95.1765 264.9422 15.08057186 88759,6920.274,95.487,543.335,540.943,0.0
51962.0,STARLINK-3697,PAYLOAD,2023-10-14 22:54:56,15.08041714,0.0001965,53.0566,3.2379,90.3738,269.7477,0.00017389,2.423e-05,0.0,0 STARLINK-3697,1 51962U 22025G   23287.95482299  .00002423  00000-0  17389-3 0  9996,2 51962  53.0566   3.2379 0001965  90.3738 269.7477 15.08041714 89937,6920.322,95.488,543.546,540.827,0.0
51962.0,STARLINK-3697,PAYLOAD,2023-10-15 11:38:26,15.08010891,0.0001692,53.0552,0.8519,102.3946,257.7233,-0.0002365,-3.964e-05,0.0,0 STARLINK-3697,1 51962U 22025G   23288.48503235 -.00003964  00000-0 -23650-3 0  9990,2 51962  53.0552   0.8519 0001692 102.3946 257.7233 15.08010891 90013,6920.416,95.49,543.452,541.11,0.0
51962.0,STARLINK-3697,PAYLOAD,2023-10-15 14:49:19,15.08012303,0.0001802,53.0574,0.2547,105.1274,254.9915,0.00013607,1.832e-05,0.0,0 STARLINK-3697,1 51962U 22025G   23288.61758500  .00001832  00000-0  13607-3 0  9993,2 51962  53.0574   0.2547 0001802 105.1274 254.9915 15.08012303 88923,6920.411,95.49,543.524,541.029,0.0
51962.0,STARLINK-3697,PAYLOAD,2023-10-16 08:19:07,15.08043925,0.0001713,53.0558,356.9742,103.6441,256.474,0.001716,0.00026541,0.0,0 STARLINK-3697,1 51962U 22025G   23289.34661457  .00026541  00000-0  17160-2 0  9999,2 51962  53.0558 356.9742 0001713 103.6441 256.4740 15.08043925 90147,6920.315,95.488,543.365,540.994,0.0
51962.0,STARLINK-3697,PAYLOAD,2023-10-16 11:29:59,15.08052716,0.0001642,53.0555,356.3791,100.2521,259.8654,0.0019076,0.00029556,0.0,0 STARLINK-3697,1 51962U 22025G   23289.47916298  .00029556  00000-0  19076-2 0  9996,2 51962  53.0555 356.3791 0001642 100.2521 259.8654 15.08052716 89052,6920.288,95.487,543.289,541.017,0.0
51962.0,STARLINK-3697,PAYLOAD,2023-10-17 11:21:31,15.08047012,0.0001313,53.0557,351.9041,88.4032,271.7108,0.00094329,0.00014437,0.0,0 STARLINK-3697,1 51962U 22025G   23290.47328396  .00014437  00000-0  94329-3 0  9991,2 51962  53.0557 351.9041 0001313  88.4032 271.7108 15.08047012 90313,6920.305,95.488,543.079,541.262,0.0
51962.0,STARLINK-3697,PAYLOAD,2023-10-18 00:05:00,15.08049618,0.000149,53.0564,349.5232,111.2203,248.8946,0.00057532,8.687e-05,0.0,0 STARLINK-3697,1 51962U 22025G   23291.00348285  .00008687  00000-0  57532-3 0  9995,2 51962  53.0564 349.5232 0001490 111.2203 248.8946 15.08049618 89280,6920.297,95.488,543.193,541.131,0.0
51962.0,STARLINK-3697,PAYLOAD,2023-10-18 12:48:30,15.08045414,0.0001465,53.0548,347.132,106.6735,253.4415,0.00098868,0.00015146,0.0,0 STARLINK-3697,1 51962U 22025G   23291.53368131  .00015146  00000-0  98868-3 0  9990,2 51962  53.0548 347.1320 0001465 106.6735 253.4415 15.08045414 90470,6920.31,95.488,543.189,541.161,0.0
51962.0,STARLINK-3697,PAYLOAD,2023-10-18 14:23:56,15.08052859,0.000139,53.0545,346.8331,105.2233,254.891,0.0012571,0.00019351,0.0,0 STARLINK-3697,1 51962U 22025G   23291.59995483  .00019351  00000-0  12571-2 0  9990,2 51962  53.0545 346.8331 0001390 105.2233 254.8910 15.08052859 89373,6920.287,95.487,543.114,541.19,0.0
51962.0,STARLINK-3697,PAYLOAD,2023-10-19 03:07:25,15.08054826,0.0002539,53.0539,344.444,102.4168,257.7106,0.0014248,0.00021981,0.0,0 STARLINK-3697,1 51962U 22025G   23292.13015656  .00021981  00000-0  14248-2 0  9991,2 51962  53.0539 344.4440 0002539 102.4168 257.7106 15.08054826 90561,6920.281,95.487,543.903,540.389,0.0
51962.0,STARLINK-3697,PAYLOAD,2023-10-19 11:04:36,15.08055469,0.000138,53.0548,342.9548,93.8132,266.3015,0.0016568,0.0002562,0.0,0 STARLINK-3697,1 51962U 22025G   23292.46152779  .00025620  00000-0  16568-2 0  9996,2 51962  53.0548 342.9548 0001380  93.8132 266.3015 15.08055469 90615,6920.279,95.487,543.099,541.189,0.0
51962.0,STARLINK-3697,PAYLOAD,2023-10-19 20:37:13,15.0804588,0.0001511,53.0542,341.167,94.2378,265.8785,0.0011579,0.00017794,0.0,0 STARLINK-3697,1 51962U 22025G   23292.85917825  .00017794  00000-0  11579-2 0  9990,2 51962  53.0542 341.1670 0001511  94.2378 265.8785 15.08045880 90679,6920.309,95.488,543.219,541.128,0.0
51962.0,STARLINK-3697,PAYLOAD,2023-10-20 02:58:57,15.08029281,0.000182,53.0539,339.9727,101.0092,259.1103,0.00081094,0.00012361,0.0,0 STARLINK-3697,1 51962U 22025G   23293.12428107  .00012361  00000-0  81094-3 0  9996,2 51962  53.0539 339.9727 0001820 101.0092 259.1103 15.08029281 90718,6920.36,95.489,543.484,540.965,0.0
51962.0,STARLINK-3697,PAYLOAD,2023-10-20 09:20:42,15.08031227,0.0001641,53.0539,338.7792,100.1086,260.0088,0.0014551,0.00022441,0.0,0 STARLINK-3697,1 51962U 22025G   23293.38938146  .00022441  00000-0  14551-2 0  9996,2 51962  53.0539 338.7792 0001641 100.1086 260.0088 15.08031227 89647,6920.354,95.489,543.354,541.083,0.0
51962.0,STARLINK-3697,PAYLOAD,2023-10-21 09:12:15,15.08031014,0.0002024,53.0545,334.3068,94.3323,265.7898,0.0006936,0.00010529,0.0,0 STARLINK-3697,1 51962U 22025G   23294.38351438  .00010529  00000-0  69360-3 0  9993,2 51962  53.0545 334.3068 0002024  94.3323 265.7898 15.08031014 90902,6920.354,95.489,543.62,540.819,0.0
51962.0,STARLINK-3697,PAYLOAD,2023-10-21 20:20:18,15.08034401,0.0001909,53.0545,332.2184,93.1091,267.0117,0.00051722,7.776e-05,0.0,0 STARLINK-3697,1 51962U 22025G   23294.84743833  .00007776  00000-0  51722-3 0  9991,2 51962  53.0545 332.2184 0001909  93.1091 267.0117 15.08034401 89863,6920.344,95.489,543.53,540.888,0.0
51962.0,STARLINK-3697,PAYLOAD,2023-10-22 12:14:39,15.08046658,0.0001937,53.0547,329.2349,95.8904,264.2307,0.00049618,7.451e-05,0.0,0 STARLINK-3697,1 51962U 22025G   23295.51018107  .00007451  00000-0  49618-3 0  9996,2 51962  53.0547 329.2349 0001937  95.8904 264.2307 15.08046658 91070,6920.306,95.488,543.512,540.831,0.0
51962.0,STARLINK-3697,PAYLOAD,2023-10-23 08:55:20,15.08030991,0.000162,53.0553,325.3569,92.2227,267.8949,0.00010815,1.398e-05,0.0,0 STARLINK-3697,1 51962U 22025G   23296.37176068  .00001398  00000-0  10815-3 0  9993,2 51962  53.0553 325.3569 0001620  92.2227 267.8949 15.08030991 91205,6920.354,95.489,543.34,541.098,0.0
51962.0,STARLINK-3697,PAYLOAD,2023-10-23 18:27:57,15.08028645,0.000157,53.0552,323.5674,91.2675,268.8495,0.00015794,2.174e-05,0.0,0 STARLINK-3697,1 51962U 22025G   23296.76941233  .00002174  00000-0  15794-3 0  9994,2 51962  53.0552 323.5674 0001570  91.2675 268.8495 15.08028645 90154,6920.361,95.489,543.313,541.14,0.0
51962.0,STARLINK-3697,PAYLOAD,2023-10-24 08:46:52,15.0803306,0.0001607,53.0551,320.8852,93.542,266.5754,0.00025151,3.632e-05,0.0,0 STARLINK-3697,1 51962U 22025G   23297.36588799  .00003632  00000-0  25151-3 0  9993,2 51962  53.0551 320.8852 0001607  93.5420 266.5754 15.08033060 90245,6920.348,95.489,543.325,541.101,0.0
51962.0,STARLINK-3697,PAYLOAD,2023-10-25 08:38:26,15.08000644,0.0001461,53.055,316.4091,92.6802,267.4355,-0.00032249,-5.299e-05,0.0,0 STARLINK-3697,1 51962U 22025G   23298.36003191 -.00005299  00000-0 -32249-3 0  9991,2 51962  53.0550 316.4091 0001461  92.6802 267.4355 15.08000644 91501,6920.447,95.491,543.323,541.301,0.0
51962.0,STARLINK-3697,PAYLOAD,2023-10-26 00:32:48,15.08023528,0.000145,53.0545,313.4285,80.9079,279.2075,0.00021093,2.999e-05,0.0,0 STARLINK-3697,1 51962U 22025G   23299.02278091  .00002999  00000-0  21093-3 0  9995,2 51962  53.0545 313.4285 0001450  80.9079 279.2075 15.08023528 91608,6920.377,95.489,543.246,541.239,0.0
51962.0,STARLINK-3697,PAYLOAD,2023-10-26 10:05:24,15.0804383,0.0001642,53.0547,311.6381,76.4293,283.6879,0.00079227,0.00012074,0.0,0 STARLINK-3697,1 51962U 22025G   23299.42042813  .00012074  00000-0  79227-3 0  9997,2 51962  53.0547 311.6381 0001642  76.4293 283.6879 15.08043830 91663,6920.315,95.488,543.316,541.044,0.0
